satname,norad_id,inclination_deg,eccentricity,mean_motion_rev_per_day,perigee_km,apogee_km,l1,l2
STARLINK-1255,45399,53.0443,0.0004243,15.48419956,418.46268705181683,424.23272977537636,1 45399U 20019AR  26050.57109624  .00084337  00000+0  15553-2 0  9994,2 45399  53.0443 189.7053 0004243 184.4896 175.6074 15.48419956327629
STARLINK-1260,45404,53.1607,9.78e-05,15.30206176,474.5263730296547,475.8668850874992,1 45404U 20019AW  26050.47490598 -.00002625  00000+0 -76530-4 0  9999,2 45404  53.1607 213.8463 0000978  78.2674 281.8437 15.30206176327181
STARLINK-1263,45405,53.161,0.0001293,15.3019524,474.3431416979138,476.11542221842774,1 45405U 20019AX  26049.81017732  .00000401  00000+0  25676-4 0  9994,2 45405  53.1610 216.9593 0001293  93.9000 266.2149 15.30195240327087
STARLINK-1265,45406,53.1606,0.0001102,15.30198479,474.46437095640704,475.97485075343957,1 45406U 20019AY  26050.47807944  .00000175  00000+0  18047-4 0  9993,2 45406  53.1606 213.9349 0001102  97.5163 262.5963 15.30198479327189
STARLINK-1278,45408,53.0474,0.0003651,15.5201166,408.37463991729237,413.331960634554,1 45408U 20019BA  26050.45088239  .00095439  00000+0  15471-2 0  9994,2 45408  53.0474 218.4353 0003651 133.2476 226.8838 15.52011660327122
STARLINK-1296,45412,53.1597,0.0001122,15.30200029,474.44603673807796,475.9839289230258,1 45412U 20019BE  26050.47174602  .00001409  00000+0  59674-4 0  9990,2 45412  53.1597 213.8700 0001122 101.2273 258.8854 15.30200029327184
STARLINK-1298,45413,53.0394,0.0006983,15.8709549,305.7602125969497,315.1014664416234,1 45413U 20019BF  26050.58336806  .00237567  00000+0  87266-3 0  9992,2 45413  53.0394 146.2700 0006983 300.4339  40.0253 15.87095490  6043
STARLINK-1309,45414,53.0686,0.0001202,15.51260355,412.22884833915396,413.86144852763664,1 45414U 20019BG  26050.47913409  .00090824  00000+0  15139-2 0  9993,2 45414  53.0686 211.3397 0001202 346.8561  13.2416 15.51260355327206
STARLINK-1316,45415,53.1608,0.0001404,15.30197343,474.26079100948937,476.1852144982631,1 45415U 20019BH  26050.45173731  .00000138  00000+0  16780-4 0  9992,2 45415  53.1608 214.0110 0001404  86.4734 273.6428 15.30197343327206
STARLINK-1318,45416,53.0315,0.0007666,16.01926393,263.98852799959514,274.1800476781091,1 45416U 20019BJ  26050.48282376  .00594481  17231-3  10149-2 0  9990,2 45416  53.0315 132.0997 0007666 350.4824   9.6060 16.01926393328331
STARLINK-1286,45417,53.0487,0.0001933,15.49357886,417.2894995269007,419.9171193305265,1 45417U 20019BK  26049.71491798  .00029603  00000+0  53732-3 0  9992,2 45417  53.0487 221.7854 0001933  82.3795 277.7432 15.49357886327289
STARLINK-1308,45419,53.054,0.0001431,15.43864739,433.74093656813875,435.69077505547284,1 45419U 20019BM  26049.84275446  .00086890  00000+0  18731-2 0  9998,2 45419  53.0540 242.4012 0001431 135.2434 224.8687 15.43864739326758
STARLINK-1329,45531,53.0519,0.0004314,15.52456726,406.62749334680666,412.4839146118002,1 45531U 20025A   26050.57247869  .00089397  00000+0  14276-2 0  9995,2 45531  53.0519 168.8397 0004314 199.1291 160.9557 15.52456726322631
STARLINK-1338,45532,53.0509,0.0004314,15.51233013,410.1951986152935,416.0546994249089,1 45532U 20025B   26050.55306050  .00089861  00000+0  14991-2 0  9992,2 45532  53.0509 172.1340 0004314 257.5345 102.5180 15.51233013322585
STARLINK-1350,45535,53.0723,0.0001223,15.3558801,458.33829760451044,460.01070399760556,1 45535U 20025E   26050.56992598  .00010091  00000+0  29803-3 0  9992,2 45535  53.0723 118.2078 0001223  56.6629 303.4490 15.35588010323370
STARLINK-1362,45538,53.1596,0.0001764,15.29356798,476.5244996526326,478.9432508974296,1 45538U 20025H   26050.56199960  .00000791  00000+0  39741-4 0  9996,2 45538  53.1596 185.1848 0001764  58.8787 301.2387 15.29356798322402
STARLINK-1368,45540,53.1582,0.0001243,15.29905714,475.24191431664167,476.9458761171927,1 45540U 20025K   26050.57327572  .00094587  00000+0  31942-2 0  9991,2 45540  53.1582 185.4738 0001243 115.2304 244.8826 15.29905714322392
STARLINK-1371,45542,53.0517,0.0003294,15.43982544,432.12526726574924,436.6133464206987,1 45542U 20025M   26050.57578707  .00036453  00000+0  79300-3 0  9990,2 45542  53.0517 175.7424 0003294 206.5919 153.4918 15.43982544322534
STARLINK-1372,45543,53.1621,0.0001202,15.30199331,474.39329377461854,476.0408400923088,1 45543U 20025N   26050.55008799 -.00000193  00000+0  56098-5 0  9992,2 45543  53.1621 185.2757 0001202 108.9953 251.1178 15.30199331321495
STARLINK-1373,45544,53.051,0.0004496,15.47080829,422.212009739299,428.3296340527477,1 45544U 20025P   26050.56745446  .00053452  00000+0  10398-2 0  9996,2 45544  53.0510 175.8039 0004496 284.9543  75.0966 15.47080829322531
STARLINK-1294,45551,53.0278,0.0009235,15.96068264,279.18571912887546,291.49316011285555,1 45551U 20025W   26050.58336806  .00404210  77091-4  96166-3 0  9991,2 45551  53.0278  67.8649 0009235  40.7110 137.0000 15.96068264  6058
STARLINK-1327,45555,53.0495,0.0003953,15.50380129,412.92979063114944,418.30093124770883,1 45555U 20025AA  26050.55817124  .00089151  00000+0  15333-2 0  9999,2 45555  53.0495 153.9077 0003953 341.9584  18.1283 15.50380129322833
STARLINK-1356,45564,53.0529,0.0004659,15.42846242,434.53831955472924,440.88932935295634,1 45564U 20025AK  26050.53789759  .00031743  00000+0  71897-3 0  9991,2 45564  53.0529 160.1207 0004659 329.6826  30.3908 15.42846242322746
STARLINK-1357,45565,53.0541,0.0001887,15.51759464,410.3076353707984,412.8700779090941,1 45565U 20025AL  26050.57250603  .00051180  00000+0  84553-3 0  9997,2 45565  53.0541 125.3966 0001887 346.5777  13.5182 15.51759464323241
STARLINK-1361,45567,53.0518,0.000622,15.44558408,428.43958633264356,436.9122375951265,1 45567U 20025AN  26050.58804979  .00100269  00000+0  21052-2 0  9998,2 45567  53.0518 160.2370 0006220 324.1448  35.9140 15.44558408322751
STARLINK-1363,45568,53.0452,0.0008123,15.72554356,346.1329982962234,357.0661283169702,1 45568U 20025AP  26050.58336806  .00101202  00000+0  73546-3 0  9992,2 45568  53.0452 127.8636 0008123 354.6385 227.1490 15.72554356  5812
STARLINK-1366,45569,53.0454,0.000787,15.721626,347.42029115787227,358.0146560993644,1 45569U 20025AQ  26050.58336806  .00112322  00000+0  82845-3 0  9990,2 45569  53.0454 128.5479 0007870 349.6731 190.5516 15.72162600  5814
STARLINK-1376,45570,53.1609,0.0001155,15.29360912,476.9297286844958,478.5134320165571,1 45570U 20025AR  26050.55180965  .00000397  00000+0  26097-4 0  9998,2 45570  53.1609 161.9457 0001155  76.4279 283.6850 15.29360912322723
STARLINK-1320,45572,53.0493,0.0008882,15.64854859,367.6592723599615,379.6531578272534,1 45572U 20025AT  26050.31058102  .00073464  00000+0  73612-3 0  9990,2 45572  53.0493  76.1866 0008882 347.7728  12.3069 15.64854859323922
STARLINK-1321,45573,53.0508,0.0002762,15.45219683,428.85204380423966,432.6132634008891,1 45573U 20025AU  26050.53615441  .00076116  00000+0  15703-2 0  9993,2 45573  53.0508 145.1626 0002762 323.8499  36.2320 15.45219683322655
STARLINK-1331,45578,53.0551,0.0002064,15.45218385,429.33111513416225,432.14181810118225,1 45578U 20025AZ  26050.60785275  .00070630  00000+0  14589-2 0  9995,2 45578  53.0551 151.4817 0002064  35.6385 324.4758 15.45218385322887
STARLINK-1333,45580,53.1613,0.0001604,15.30197923,474.1219923072931,476.3205496406208,1 45580U 20025BB  26050.53585371  .00004033  00000+0  14823-3 0  9991,2 45580  53.1613 162.1302 0001604 113.2600 246.8570 15.30197923322720
STARLINK-1335,45581,53.0565,0.0001529,15.06393645,546.1721463938857,548.2899239390399,1 45581U 20025BC  26050.55077874 -.00000041  00000+0  16164-4 0  9995,2 45581  53.0565 158.0488 0001529  69.3721 290.7432 15.06393645322778
STARLINK-1337,45582,53.0544,0.0002376,15.54809991,401.0938902675707,404.3161463946808,1 45582U 20025BD  26050.57771025  .00084602  00000+0  12419-2 0  9998,2 45582  53.0544 149.5111 0002376  33.7219 326.3942 15.54809991322896
STARLINK-1347,45586,53.0474,0.0005372,15.50486325,411.65570822179325,418.9545824627485,1 45586U 20025BH  26050.58864339  .00073401  00000+0  12613-2 0  9995,2 45586  53.0474 116.6354 0005372 336.0503  24.0254 15.50486325323358
STARLINK-1364,45589,53.0523,0.0005624,15.46300382,423.73231106466574,431.3873588646338,1 45589U 20025BL  26050.54354898  .00076769  00000+0  15254-2 0  9992,2 45589  53.0523 149.9869 0005624 346.4075  13.6779 15.46300382322881
STARLINK-1365,45590,53.0547,0.0002321,15.4327382,434.87317071526377,438.03650424622265,1 45590U 20025BM  26050.54593423  .00038923  00000+0  86636-3 0  9996,2 45590  53.0547 179.8313 0002321 333.5276  26.5610 15.43273820322482
STARLINK-1443,45660,53.0636,6.81e-05,15.09715161,536.5987386353727,537.5405897830378,1 45660U 20035D   26050.58336806  .00033482  00000+0  20618-2 0  9991,2 45660  53.0636 147.8900 0000681  62.0223 337.9581 15.09715161  5798
STARLINK-1446,45663,53.0242,0.0001367,15.42057439,439.1059066480002,440.9699956796485,1 45663U 20035G   26050.40939958  .00015545  00000+0  36716-3 0  9999,2 45663  53.0242  86.1536 0001367 185.4270 174.6719 15.42057439316853
STARLINK-1448,45665,53.0521,0.000532,15.485838,417.25102769953264,424.485169124242,1 45665U 20035J   26050.60062577  .00070876  00000+0  13029-2 0  9996,2 45665  53.0521 139.5750 0005320  13.6414 346.4736 15.48583800316110
STARLINK-1451,45668,53.0531,7.77e-05,15.09103657,538.4001556297171,539.4750690244737,1 45668U 20035M   26050.47342524  .00023087  00000+0  14533-2 0  9990,2 45668  53.0531 148.2406 0000777 271.2928  88.7973 15.09103657315991
STARLINK-1452,45669,53.0335,0.0007703,15.42012687,434.91772593317273,445.42200949357175,1 45669U 20035N   26050.41946912  .00066074  00000+0  15207-2 0  9998,2 45669  53.0335 108.5693 0007703 341.3953  18.6769 15.42012687316540
STARLINK-1453,45670,53.0489,0.000784,15.48877188,414.6797470168567,425.3392407192414,1 45670U 20035P   26050.39920422  .00118631  00000+0  21387-2 0  9998,2 45670  53.0489 101.1516 0007840 333.3686  26.6918 15.48877188316536
